UNISAT-6                
1 40012U 14033C   26053.67334880  .00003681  00000+0  40391-3 0  9990
2 40012  97.7701 208.5601 0046739  86.2899 274.3660 14.87508675629133
DEIMOS-2                
1 40013U 14033D   26053.88783050  .00002712  00000+0  26384-3 0  9991
2 40013  97.6000 292.3032 0001926  55.7048 304.4354 14.93343602620668
BUGSAT-1 (TITA)         
1 40014U 14033E   26053.83757821  .00006299  00000+0  34494-3 0  9999
2 40014  98.0449 139.8181 0028381 209.1501 150.8146 15.14279092638525
SAUDISAT 4              
1 40016U 14033G   26053.68262321  .00000888  00000+0  12391-3 0  9990
2 40016  97.7382 203.9053 0046307  86.3112 274.3394 14.79356717629146
APRIZESAT 9             
1 40018U 14033J   26053.63071405  .00000983  00000+0  15214-3 0  9991
2 40018  97.8857 189.7664 0065776 207.6192 152.1517 14.74034002626683
BRITE-CA1 (TORONTO)     
1 40020U 14033L   26053.81468595  .00001111  00000+0  17544-3 0  9996
2 40020  97.9545 184.9924 0077687 283.2701  75.9851 14.72415865625384
DUCHIFAT-1              
1 40021U 14033M   26053.64613286  .00063029  00000+0  12047-2 0  9995
2 40021  98.0665  98.3239 0007035 126.2278 233.9622 15.47860659637947
NANOSATC-BR1            
1 40024U 14033Q   26053.59126885  .00020890  00000+0  77855-3 0  9994
2 40024  98.0862  76.0947 0002927 194.7339 165.3813 15.27479423636460
QB50P1                  
1 40025U 14033R   26053.73026896  .00011554  00000+0  60193-3 0  9996
2 40025  98.1011  57.0079 0007039 254.7260 105.3194 15.16157308635673
DTUSAT-2                
1 40030U 14033W   26053.18745039  .00008572  00000+0  48650-3 0  9998
2 40030  98.0841  43.7904 0006197 268.0558  91.9962 15.13202578635287
QB50P2                  
1 40032U 14033Y   26053.78786045  .00010739  00000+0  60573-3 0  9994
2 40032  98.0721  43.7236 0006950 191.0173 169.0905 15.13348209635353
PERSEUS-M1              
1 40039U 14033AF  26053.81744618  .00002038  00000+0  19091-3 0  9997
2 40039  97.9535 356.1879 0010900 323.4885  36.5590 14.95164355633540
POLYITAN-1              
1 40042U 14033AJ  26053.82031273  .00022674  00000+0  80979-3 0  9999
2 40042  98.1066  69.5812 0007864 172.0896 188.0467 15.28839747636093
TIGRISAT                
1 40043U 14033AK  26053.15631799  .00002348  00000+0  27771-3 0  9992
2 40043  97.7646 205.9528 0050995  92.2241 268.4815 14.84631091628558
AISAT                   
1 40054U 14034B   26053.67571534  .00014530  00000+0  99224-3 0  9990
2 40054  98.2462 317.9226 0008039 246.7503 113.2876 15.06274907629953
CANX-4                  
1 40055U 14034C   26053.78006311  .00001121  00000+0  15191-3 0  9992
2 40055  98.3299 284.7935 0013379  24.0620 336.1214 14.81018555627598
CANX-5                  
1 40056U 14034D   26053.57712120  .00001130  00000+0  15295-3 0  9997
2 40056  98.3302 284.6194 0013405  24.9415 335.2441 14.81034753618377
VELOX-I                 
1 40057U 14034E   26053.85092969  .00006611  00000+0  58494-3 0  9998
2 40057  98.2631 312.4155 0006327 295.7267  64.3299 14.96645438629497
GONETS-M 10             
1 40063U 14036C   26053.85030892  .00000040  00000+0  21845-3 0  9994
2 40063  82.5139  18.6824 0022780  33.6391 326.6129 12.42941918528045
METEOR-M 2              
1 40069U 14037A   26053.90108600  .00000338  00000+0  17371-3 0  9999
2 40069  98.5007  33.7589 0006249  19.4898 340.6518 14.21422735603080
DX1                     
1 40071U 14037C   26053.84622226  .00001573  00000+0  17153-3 0  9990
2 40071  98.3744   8.7401 0005821 291.7541  68.3055 14.89542070629086
UKUBE-1                 
1 40074U 14037F   26053.78944798  .00012042  00000+0  71641-3 0  9992
2 40074  98.4225  45.2421 0002121 130.6104 229.5309 15.11423699631265
GAOFEN-2                
1 40118U 14049A   26053.84659657  .00000198  00000+0  32662-4 0  9998
2 40118  98.0251 118.1020 0006115 239.2564 120.8046 14.80743590622314
BRITE-PL2 (HEWELIUSZ)   
1 40119U 14049B   26053.73886820  .00002216  00000+0  21252-3 0  9996
2 40119  97.8979 164.9845 0015284 126.5657 233.6971 14.94095508624351
CBERS 4                 
1 40336U 14079A   26053.86584859 -.00000059  00000+0 -60525-5 0  9994
2 40336  98.3167 114.3605 0000554  51.7932 308.3304 14.35505505587557
SMAP                    
1 40376U 15003A   26053.82309169  .00000523  00000+0  11045-3 0  9996
2 40376  98.1309  62.5204 0001001 109.7450 250.3860 14.63317315590898
GONETS-M 11             
1 40552U 15020A   26053.86236744  .00000009  00000+0 -28041-5 0  9999
2 40552  82.4824 102.2389 0015003 249.3332 110.6139 12.42872076494531
GONETS-M 12             
1 40553U 15020B   26053.83723657 -.00000034  00000+0 -31437-3 0  9991
2 40553  82.4859 103.3486 0014214 232.6915 127.2870 12.42887735494528
GONETS-M 13             
1 40554U 15020C   26053.88928637  .00000041  00000+0  22505-3 0  9994
2 40554  82.4819 101.9643 0013111 216.1724 143.8469 12.42866627494507
DMC3-FM1                
1 40715U 15032A   26053.84304689  .00000493  00000+0  62911-4 0  9994
2 40715  97.6627 283.3920 0007010  72.9039 287.2944 14.85584775572937
DMC3-FM2                
1 40716U 15032B   26053.86541772  .00001060  00000+0  12847-3 0  9996
2 40716  97.6685 284.9087 0007585  77.0729 283.1333 14.85590728572934
DMC3-FM3                
1 40717U 15032C   26053.88825273  .00000909  00000+0  11106-3 0  9998
2 40717  97.6740 286.6100 0007019  77.2087 282.9912 14.85555510572944
CARBONITE 1 (CBNT-1)    
1 40718U 15032D   26053.84684640  .00002940  00000+0  36622-3 0  9993
2 40718  97.6448 236.7506 0013711 313.4381  46.5692 14.83140384572399
DEORBITSAIL             
1 40719U 15032E   26053.84756240  .00010025  00000+0  76845-3 0  9994
2 40719  97.6037 272.8948 0010608 261.8260  98.1761 15.01979764574079
2015-049G               
1 40905U 15049G   26053.83947229  .00039785  00000+0  53013-3 0  9993
2 40905  97.4747  91.6716 0004051 277.7400  82.3396 15.58026286578593
LILACSAT-2              
1 40908U 15049K   26053.83839053  .00020371  00000+0  39887-3 0  9995
2 40908  97.4833  86.5525 0005887 318.1366  41.9432 15.47416345578041
COSMOS 2507 (RODNIK-S *)
1 40920U 15050A   26053.84937131  .00000106  00000+0  69445-3 0  9995
2 40920  82.4960 150.8557 0009165 232.4865 127.5383 12.42923016472651
COSMOS 2508 (RODNIK-S *)
1 40921U 15050B   26053.88368594  .00000057  00000+0  33835-3 0  9990
2 40921  82.4911 149.3839 0012968 270.7739  89.1855 12.42909633472649
COSMOS 2509 (RODNIK-S *)
1 40922U 15050C   26053.82140628  .00000117  00000+0  77396-3 0  9998
2 40922  82.4918 149.5145 0013254 291.2329  68.7335 12.42930149472676
LQSAT                   
1 40958U 15057A   26053.89459627  .00000730  00000+0  11129-3 0  9996
2 40958  97.6651  52.9670 0015615 285.7644  74.1844 14.76605264558440
LINGQIAO VIDEO A        
1 40959U 15057B   26053.89435138  .00000917  00000+0  13605-3 0  9996
2 40959  97.6600  54.3690 0015316 283.1380  76.8122 14.77206947558534
LINGQIAO VIDEO B        
1 40960U 15057C   26053.87876441  .00000500  00000+0  77142-4 0  9997
2 40960  97.6573  55.5454 0015474 283.3898  76.5587 14.77295660558573
JILIN-1                 
1 40961U 15057D   26053.80756923  .00000772  00000+0  11367-3 0  9990
2 40961  97.6511  58.8727 0015493 276.5821  83.3626 14.77962750558713
FOX-1A (AO-85)          
1 40967U 15058D   26053.69493601  .00003336  00000+0  30795-3 0  9990
2 40967  64.7742 274.5928 0129636 101.9176 259.6505 14.90214884 96500
SINOD-D 1               
1 40968U 15058E   26053.72195175  .00005203  00000+0  42834-3 0  9992
2 40968  64.7740 257.0980 0118045  99.3978 262.0504 14.94851768 99541
ELEKTRO-L 2             
1 41105U 15074A   26053.81190240 -.00000115  00000+0  00000+0 0  9995
2 41105   6.4041  71.9362 0003411 232.2092 126.3615  1.00271133 37355
DAMPE                   
1 41173U 15078A   26053.89339336  .00001127  00000+0  40839-4 0  9995
2 41173  97.4578  58.8161 0013554 117.2968 242.9655 15.30437495567067
ORBCOMM FM114           
1 41179U 15081A   26053.05190272  .00000561  00000+0  15544-3 0  9992
2 41179  47.0036 186.2892 0001676  19.0000 341.0948 14.58700615540948
ORBCOMM FM110           
1 41182U 15081D   26053.65756723  .00000771  00000+0  20007-3 0  9994
2 41182  47.0009 182.9023 0003520 262.0518  97.9968 14.58697448540909
ORBCOMM FM112           
1 41184U 15081F   26053.14715306  .00000649  00000+0  17394-3 0  9991
2 41184  46.9985  94.1346 0001403 358.5863   1.5019 14.58699370542159
ORBCOMM FM113           
1 41185U 15081G   26053.80931883  .00000697  00000+0  18415-3 0  9993
2 41185  47.0001  91.3703 0000968   0.8723 359.2164 14.58703013542237
ORBCOMM FM108           
1 41187U 15081J   26053.22406814  .00000868  00000+0  22066-3 0  9999
2 41187  47.0064   5.6712 0002647   6.2543 353.8375 14.58705221543296
ORBCOMM FM117           
1 41188U 15081K   26053.25803598  .00000855  00000+0  21788-3 0  9999
2 41188  47.0025   4.1822 0002887  17.6913 342.4072 14.58698326543344
ORBCOMM FM116           
1 41189U 15081L   26053.78671953  .00000792  00000+0  20438-3 0  9997
2 41189  47.0018  91.4652 0002754 260.5768  99.4806 14.58694556542239
CHUBUSAT-2              
1 41338U 16012B   26053.18123625  .00007256  00000+0  32772-3 0  9996
2 41338  30.9994 355.3871 0009299 339.9686  20.0589 15.19494452550907
CHUBUSAT-3              
1 41339U 16012C   26053.86265993  .00006025  00000+0  28824-3 0  9993
2 41339  31.0067 357.9052 0009530 338.3594  21.6643 15.17423010550817
HORYU-4                 
1 41340U 16012D   26053.63696794  .00093221  00000+0  10926-2 0  9994
2 41340  30.9912 173.0670 0001070 329.4018  30.6571 15.60111156552750
ZIYUAN 3-02 (ZY 3-02)   
1 41556U 16033A   26053.87620697  .00007998  00000+0  35968-3 0  9991
2 41556  97.3923 131.7979 0012104 355.5094   4.6031 15.21314620540606
CARTOSAT-2C             
1 41599U 16040A   26053.72029368  .00002739  00000+0  13331-3 0  9996
2 41599  97.4634 115.1837 0009626 171.2020 188.9385 15.19195277536334
